0 OBJECT J
1 43766U 18099J   19047.47484610  .00000565  00000-0  57636-4 0  9995
2 43766  97.7573 120.7978 0011699  19.5186 340.6480 14.94455377 11169
0 OBJECT J
1 43766U 18099J   19047.80962300  .00000586  00000-0  59643-4 0  9992
2 43766  97.7572 121.1287 0011678  18.4363 341.7278 14.94455799 11219
0 OBJECT J
1 43766U 18099J   19046.87224725 +.00000529 +00000-0 +54375-4 0  9994
2 43766 097.7574 120.2023 0011748 021.4064 338.7645 14.94454776011071
0 OBJECT J
1 43766U 18099J   19047.14006897  .00000549  00000-0  56233-4 0  9990
2 43766  97.7573 120.4670 0011726  20.5487 339.6202 14.94455078 11115
0 CORVUS BC4
1 43767U 18099K   19047.20364100  .00000359  00000-0  38566-4 0  9990
2 43767  97.7573 120.5359 0012107  19.2629 340.9046 14.94514577 11120
0 CORVUS BC4
1 43767U 18099K   19046.86887713 +.00000321 +00000-0 +35005-4 0  9995
2 43767 097.7574 120.2050 0012135 020.3278 339.8423 14.94514306011070
0 AISTECHSAT-2
1 43768U 18099L   19047.20711071  .00000488  00000-0  50567-4 0  9992
2 43768  97.7573 120.5327 0011805  20.0864 340.0819 14.94447326 10845
0 AISTECHSAT-2
1 43768U 18099L   19047.74275683  .00000511  00000-0  52656-4 0  9993
2 43768  97.7572 121.0621 0011768  18.3881 341.7763 14.94447771 10923
0 AISTECHSAT-2
1 43768U 18099L   19047.27406655  .00000485  00000-0  50303-4 0  9993
2 43768  97.7573 120.5989 0011800  19.9058 340.2620 14.94447325 10858
0 FLOCK 3S 1
1 43769U 18099M   19047.19602450  .00000091  00000-0  13738-4 0  9990
2 43769  97.7537 120.5103 0014534  26.4182 333.7776 14.94665128 11128
0 FLOCK 3S 1
1 43769U 18099M   19046.79434829 +.00000036 +00000-0 +85946-5 0  9998
2 43769 097.7537 120.1133 0014564 027.6869 332.5124 14.94665006011067
0 AO-95
1 43770U 18099N   19046.72735333 +.00000191 +00000-0 +22955-4 0  9999
2 43770 097.7588 120.0958 0015158 029.1965 331.0099 14.94676588011054
0 AO-95
1 43770U 18099N   19047.19597191  .00000250  00000-0  28334-4 0  9992
2 43770  97.7587 120.5591 0015117  27.7293 332.4730 14.94676822 11120
0 OBJECT P
1 43771U 18099P   19047.19558287  .00000256  00000-0  28919-4 0  9991
2 43771  97.7586 120.5590 0015136  27.7784 332.4241 14.94686257 11114
0 OBJECT P
1 43771U 18099P   19046.86085743 +.00000213 +00000-0 +24956-4 0  9996
2 43771 097.7587 120.2280 0015170 028.8269 331.3787 14.94686063011068
0 OBJECT Q
1 43772U 18099Q   19046.85784056 +.00000214 +00000-0 +25031-4 0  9995
2 43772 097.7637 120.2786 0014427 016.6042 343.5648 14.94753887011064
0 OBJECT Q
1 43772U 18099Q   19047.25949285  .00000253  00000-0  28582-4 0  9994
2 43772  97.7636 120.6761 0014384  15.2935 344.8717 14.94754054 11123
0 RANGE-A
1 43773U 18099R   19046.72407506 +.00000002 +00000-0 +55063-5 0  9998
2 43773 097.7536 120.0554 0013855 017.5052 342.6643 14.94736585011048
0 RANGE-A
1 43773U 18099R   19047.19267483  .00000064  00000-0  11192-4 0  9990
2 43773  97.7534 120.5185 0013811  15.9778 344.1875 14.94736701 11112
0 HIBER-2
1 43774U 18099S   19047.18919076  .00000033  00000-0  83195-5 0  9991
2 43774  97.7615 120.5893 0013160  19.5931 340.5793 14.94820336 11114
0 HIBER-2
1 43774U 18099S   19046.78755634 -.00000010 +00000-0 +43487-5 0  9990
2 43774 097.7616 120.1919 0013202 020.8811 339.2946 14.94820241011052
0 OBJECT T
1 43775U 18099T   19046.71759567 -.00000188 +00000-0 -11923-4 0  9999
2 43775 097.7597 120.1223 0015101 020.9411 339.2425 14.94866811011040
0 OBJECT T
1 43775U 18099T   19047.18615444 -.00000151  00000-0 -85363-5 0  9996
2 43775  97.7596 120.5858 0015053  19.4091 340.7700 14.94866741 11102
0 OBJECT U
1 43776U 18099U   19046.71756649 -.00000238 +00000-0 -16491-4 0  9999
2 43776 097.7596 120.1217 0015126 020.8605 339.3230 14.94863868011037
0 OBJECT U
1 43776U 18099U   19047.72162318 -.00000144  00000-0 -79167-5 0  9991
2 43776  97.7594 121.1149 0015034  17.6165 342.5574 14.94863661 11187
0 LACMA ENOCH
1 43777U 18099V   19046.73507318 +.00000544 +00000-0 +55765-4 0  9994
2 43777 097.7545 120.0492 0016000 022.7825 337.4101 14.94433487011040
0 LACMA ENOCH
1 43777U 18099V   19047.20376770  .00000595  00000-0  60450-4 0  9996
2 43777  97.7544 120.5123 0015962  21.2677 338.9203 14.94434051 11115
0 OBJECT W
1 43778U 18099W   19047.19094416  .00000093  00000-0  13830-4 0  9992
2 43778  97.7495 120.4787 0014525  24.6704 335.5208 14.94777975 10693
0 OBJECT W
1 43778U 18099W   19046.72235727 +.00000042 +00000-0 +91601-5 0  9999
2 43778 097.7496 120.0158 0014570 026.1764 334.0189 14.94777873010638
0 OBJECT X
1 43779U 18099X   19047.72163249 -.00000127  00000-0 -62744-5 0  9992
2 43779  97.7592 121.1151 0015006  17.6991 342.4749 14.94865015 11185
0 MOVE-II
1 43780U 18099Y   19046.85003312 +.00000073 +00000-0 +12010-4 0  9999
2 43780 097.7573 120.2244 0014048 027.5192 332.6769 14.94917342011057
0 MOVE-II
1 43780U 18099Y   19047.18470666  .00000095  00000-0  14038-4 0  9992
2 43780  97.7572 120.5553 0014011  26.4340 333.7592 14.94917486 11106
0 VESTA-1
1 43781U 18099Z   19047.18328990 -.00000171  00000-0 -10343-4 0  9997
2 43781  97.7518 120.5095 0013908  19.0067 341.1669 14.94937372 11111
0 VESTA-1
1 43781U 18099Z   19046.84862084 -.00000190 +00000-0 -12081-4 0  9998
2 43781 097.7518 120.1788 0013946 020.1056 340.0710 14.94937398011066
0 OBJECT AA
1 43782U 18099AA  19046.84668985 -.00000186 +00000-0 -11706-4 0  9991
2 43782 097.7585 120.2439 0013127 017.4171 342.7497 14.94970871011067
0 OBJECT AA
1 43782U 18099AA  19047.18135138 -.00000178  00000-0 -10983-4 0  9995
2 43782  97.7584 120.5749 0013090  16.3223 343.8417 14.94970840 11114
0 KAZSTSAT
1 43783U 18099AB  19047.20697528  .00000199  00000-0  24252-4 0  9990
2 43783  97.7724 120.5873 0009173  14.9447 345.2042 14.93618392 11107
0 KAZSTSAT
1 43783U 18099AB  19046.87201079 +.00000175 +00000-0 +21933-4 0  9991
2 43783 097.7724 120.2560 0009196 016.0547 344.0962 14.93618237011056
0 OBJECT AC
1 43784U 18099AC  19046.84301985 -.00000163 +00000-0 -96026-5 0  9991
2 43784 097.7550 120.2131 0015660 024.3578 335.8379 14.95045121011077
0 OBJECT AC
1 43784U 18099AC  19047.17766460 -.00000171  00000-0 -10312-4 0  9993
2 43784  97.7549 120.5440 0015624  23.2569 336.9355 14.95045108 11126
0 ORBWEAVER 2
1 43785U 18099AD  19047.17731933  .00000083  00000-0  12812-4 0  9998
2 43785  97.7518 120.5127 0013674  13.4987 346.6597 14.95062297 10676
0 ORBWEAVER 2
1 43785U 18099AD  19046.77575026 +.00000078 +00000-0 +12385-4 0  9991
2 43785 097.7519 120.1158 0013708 014.8985 345.2636 14.95062009010623
0 OBJECT AE
1 43786U 18099AE  19046.84208868 -.00000183 +00000-0 -11350-4 0  9997
2 43786 097.7604 120.2684 0015750 023.2213 336.9716 14.95062569011078
0 OBJECT AE
1 43786U 18099AE  19047.17672948 -.00000198  00000-0 -12711-4 0  9996
2 43786  97.7603 120.5996 0015711  22.1103 338.0792 14.95062528 11127
0 OBJECT AF
1 43787U 18099AF  19047.17564036  .00000027  00000-0  77254-5 0  9998
2 43787  97.7495 120.5006 0014595  21.1714 339.0107 14.95102257 11120
0 OBJECT AF
1 43787U 18099AF  19046.84100839 +.00000045 +00000-0 +94103-5 0  9990
2 43787 097.7496 120.1699 0014630 022.2914 337.8939 14.95102131011073
0 FLOCK 3S 3
1 43788U 18099AG  19046.90643685 -.00000163 +00000-0 -95541-5 0  9999
2 43788 097.7581 120.3114 0015371 024.7467 335.4488 14.95114502011074
0 FLOCK 3S 3
1 43788U 18099AG  19047.17414014 -.00000183  00000-0 -11368-4 0  9997
2 43788  97.7580 120.5762 0015343  23.8517 336.3411 14.95114499 11115
0 OBJECT AH
1 43789U 18099AH  19047.15807355  .00000483  00000-0  48866-4 0  9994
2 43789  97.7582 120.5983 0016283  21.2669 338.9225 14.95447817 10817
0 OBJECT AH
1 43789U 18099AH  19046.75660823 +.00000537 +00000-0 +53763-4 0  9998
2 43789 097.7583 120.2009 0016313 022.6055 337.5880 14.95447412010758
0 OBJECT AJ
1 43790U 18099AJ  19046.88989790 +.00000364 +00000-0 +38108-4 0  9995
2 43790 097.7596 120.3502 0014140 029.2861 330.9150 14.95444515010777
0 OBJECT AJ
1 43790U 18099AJ  19047.15754209  .00000326  00000-0  34734-4 0  9990
2 43790  97.7595 120.6152 0014122  28.4116 331.7872 14.95444697 10810
0 CAPELLA-1
1 43791U 18099AK  19047.28713550  .00002039  00000-0  18878-3 0  9992
2 43791  97.7616 120.7503 0011182  28.2773 331.9052 14.95576427 11131
0 CAPELLA-1
1 43791U 18099AK  19046.81879862 +.00002126 +00000-0 +19664-3 0  9990
2 43791 097.7617 120.2864 0011220 029.9461 330.2399 14.95574900011064
0 ESEO
1 43792U 18099AL  19046.82146898 +.00000358 +00000-0 +37548-4 0  9995
2 43792 097.7578 120.2716 0013936 026.8828 333.3112 14.95469504010829
0 ESEO
1 43792U 18099AL  19047.75820794  .00000232  00000-0  26218-4 0  9995
2 43792  97.7576 121.1988 0013881  23.8370 336.3491 14.95470017 10965
0 CSIM
1 43793U 18099AM  19047.82248918  .00000694  00000-0  67708-4 0  9997
2 43793  97.7529 121.2084 0013319  22.1312 338.0481 14.95551996 10948
0 HAWK-B
1 43794U 18099AN  19046.86539110 +.00000206 +00000-0 +23601-4 0  9991
2 43794 097.7557 120.3568 0015676 031.1599 329.0548 14.95927075011065
0 HAWK-B
1 43794U 18099AN  19047.19983905  .00000241  00000-0  26689-4 0  9991
2 43794  97.7557 120.6880 0015650  30.1322 330.0796 14.95927270 11110
0 ORBWEAVER 1
1 43795U 18099AP  19047.21604407  .00001014  00000-0  96374-4 0  9999
2 43795  97.7535 120.6287 0014015  27.4578 332.7381 14.95636960 11116
0 ORBWEAVER 1
1 43795U 18099AP  19046.74772637 +.00001022 +00000-0 +97080-4 0  9991
2 43795 097.7535 120.1652 0014044 028.9708 331.2289 14.95636037011048
0 ORBWEAVER 1
1 43795U 18099AP  19047.81816640  .00000762  00000-0  73681-4 0  9994
2 43795  97.7535 121.2239 0014855  23.1463 337.0243 14.95636086 11202
0 THEA
1 43796U 18099AQ  19046.74553270 +.00000683 +00000-0 +66589-4 0  9994
2 43796 097.7574 120.2112 0015153 010.8494 349.3051 14.95666557009963
